start=new Date('2023-04-09T00:00:00.000Z').valueOf();
sats=[{"GP_ID":"229739884","ECCENTRICITY":"0.00010530","RCS_SIZE":"LARGE","EPOCH":"2023-04-08T22:11:43.931328","SITE":"AFETR","LAUNCH_DATE":"2021-11-13","OBJECT_NAME":"STARLINK-3145","EPHEMERIS_TYPE":"0","PERIOD":"95.437","MEAN_ELEMENT_THEORY":"SGP4","NORAD_CAT_ID":"49455","FILE":"3883753","CLASSIFICATION_TYPE":"U","SEMIMAJOR_AXIS":"6917.862","INCLINATION":"53.2165","APOAPSIS":"540.455","ELEMENT_SET_NO":"999","BSTAR":"0.00023981000000","RA_OF_ASC_NODE":"323.5244","TLE_LINE2":"2 49455  53.2165 323.5244 0001053 102.9548 257.1562 15.08846163 78951","MEAN_ANOMALY":"257.1562","REF_FRAME":"TEME","OBJECT_ID":"2021-104AZ","OBJECT_TYPE":"PAYLOAD","MEAN_MOTION_DOT":"0.00003531","DECAY_DATE":null,"ARG_OF_PERICENTER":"102.9548","CENTER_NAME":"EARTH","COUNTRY_CODE":"US","REV_AT_EPOCH":"7895","MEAN_MOTION_DDOT":"0.0000000000000","PERIAPSIS":"538.998","MEAN_MOTION":"15.08846163","TIME_SYSTEM":"UTC","TLE_LINE1":"1 49455U 21104AZ  23098.92481402  .00003531  00000-0  23981-3 0  9995"},{"REV_AT_EPOCH":"7775","COUNTRY_CODE":"US","CENTER_NAME":"EARTH","ARG_OF_PERICENTER":"94.3461","DECAY_DATE":null,"MEAN_MOTION_DOT":"0.00000437","OBJECT_TYPE":"PAYLOAD","OBJECT_ID":"2021-104BA","REF_FRAME":"TEME","TLE_LINE1":"1 49456U 21104BA  23098.07570873  .00000437  00000-0  45527-4 0  9996","TIME_SYSTEM":"UTC","MEAN_MOTION":"15.08833518","PERIAPSIS":"539.004","MEAN_MOTION_DDOT":"0.0000000000000","PERIOD":"95.438","EPHEMERIS_TYPE":"0","OBJECT_NAME":"STARLINK-3124","LAUNCH_DATE":"2021-11-13","SITE":"AFETR","EPOCH":"2023-04-08T01:49:01.234272","RCS_SIZE":"LARGE","GP_ID":"229729426","ECCENTRICITY":"0.00011010","MEAN_ANOMALY":"265.7656","TLE_LINE2":"2 49456  53.2171 327.3852 0001101  94.3461 265.7656 15.08833518 77754","RA_OF_ASC_NODE":"327.3852","ELEMENT_SET_NO":"999","BSTAR":"0.00004552700000","APOAPSIS":"540.527","INCLINATION":"53.2171","SEMIMAJOR_AXIS":"6917.900","FILE":"3883527","CLASSIFICATION_TYPE":"U","NORAD_CAT_ID":"49456","MEAN_ELEMENT_THEORY":"SGP4"},{"ELEMENT_SET_NO":"999","BSTAR":"-0.00001847800000","APOAPSIS":"540.622","RA_OF_ASC_NODE":"324.7318","TLE_LINE2":"2 49457  53.2172 324.7318 0001248  81.9040 278.2094 15.08835763 78919","MEAN_ANOMALY":"278.2094","NORAD_CAT_ID":"49457","MEAN_ELEMENT_THEORY":"SGP4","FILE":"3883553","CLASSIFICATION_TYPE":"U","INCLINATION":"53.2172","SEMIMAJOR_AXIS":"6917.893","SITE":"AFETR","OBJECT_NAME":"STARLINK-3132","LAUNCH_DATE":"2021-11-13","PERIOD":"95.438","EPHEMERIS_TYPE":"0","RCS_SIZE":"LARGE","GP_ID":"229734532","ECCENTRICITY":"0.00012480","EPOCH":"2023-04-08T15:44:53.787840","TIME_SYSTEM":"UTC","MEAN_MOTION":"15.08835763","TLE_LINE1":"1 49457U 21104BB  23098.65617810 -.00000582  00000-0 -18478-4 0  9992","MEAN_MOTION_DDOT":"0.0000000000000","PERIAPSIS":"538.895","MEAN_MOTION_DOT":"-0.00000582","DECAY_DATE":null,"ARG_OF_PERICENTER":"81.9040","COUNTRY_CODE":"US","REV_AT_EPOCH":"7891","CENTER_NAME":"EARTH","REF_FRAME":"TEME","OBJECT_ID":"2021-104BB","OBJECT_TYPE":"PAYLOAD"},{"TLE_LINE1":"1 49458U 21104BC  23098.00113137  .00004776  00000-0  31790-3 0  9993","MEAN_MOTION":"15.08848720","TIME_SYSTEM":"UTC","PERIAPSIS":"539.107","MEAN_MOTION_DDOT":"0.0000000000000","ARG_OF_PERICENTER":"79.4346","CENTER_NAME":"EARTH","COUNTRY_CODE":"US","REV_AT_EPOCH":"7774","MEAN_MOTION_DOT":"0.00004776","DECAY_DATE":null,"OBJECT_TYPE":"PAYLOAD","OBJECT_ID":"2021-104BC","REF_FRAME":"TEME","TLE_LINE2":"2 49458  53.2163 327.6731 0000884  79.4346 280.6746 15.08848720 77745","MEAN_ANOMALY":"280.6746","APOAPSIS":"540.330","ELEMENT_SET_NO":"999","BSTAR":"0.00031790000000","RA_OF_ASC_NODE":"327.6731","FILE":"3883527","CLASSIFICATION_TYPE":"U","SEMIMAJOR_AXIS":"6917.854","INCLINATION":"53.2163","NORAD_CAT_ID":"49458","MEAN_ELEMENT_THEORY":"SGP4","LAUNCH_DATE":"2021-11-13","OBJECT_NAME":"STARLINK-3156","EPHEMERIS_TYPE":"0","PERIOD":"95.437","SITE":"AFETR","EPOCH":"2023-04-08T00:01:37.750368","GP_ID":"229728928","ECCENTRICITY":"0.00008840","RCS_SIZE":"LARGE"},{"OBJECT_ID":"2021-104BD","OBJECT_TYPE":"PAYLOAD","REF_FRAME":"TEME","ARG_OF_PERICENTER":"90.6466","CENTER_NAME":"EARTH","REV_AT_EPOCH":"7774","COUNTRY_CODE":"US","MEAN_MOTION_DOT":"0.00006026","DECAY_DATE":null,"PERIAPSIS":"539.006","MEAN_MOTION_DDOT":"0.0000000000000","TLE_LINE1":"1 49459U 21104BD  23097.99009630  .00006026  00000-0  39643-3 0  9998","MEAN_MOTION":"15.08837037","TIME_SYSTEM":"UTC","EPOCH":"2023-04-07T23:45:44.320320","ECCENTRICITY":"0.00010820","GP_ID":"229729180","RCS_SIZE":"LARGE","LAUNCH_DATE":"2021-11-13","OBJECT_NAME":"STARLINK-3141","EPHEMERIS_TYPE":"0","PERIOD":"95.438","SITE":"AFETR","CLASSIFICATION_TYPE":"U","FILE":"3883527","INCLINATION":"53.2162","SEMIMAJOR_AXIS":"6917.889","NORAD_CAT_ID":"49459","MEAN_ELEMENT_THEORY":"SGP4","TLE_LINE2":"2 49459  53.2162 327.7187 0001082  90.6466 269.4650 15.08837037 77748","MEAN_ANOMALY":"269.4650","APOAPSIS":"540.503","BSTAR":"0.00039643000000","ELEMENT_SET_NO":"999","RA_OF_ASC_NODE":"327.7187"},{"GP_ID":"229738711","ECCENTRICITY":"0.00010990","RCS_SIZE":"LARGE","EPOCH":"2023-04-08T18:45:04.183488","SITE":"AFETR","EPHEMERIS_TYPE":"0","PERIOD":"95.438","OBJECT_NAME":"STARLINK-3140","LAUNCH_DATE":"2021-11-13","MEAN_ELEMENT_THEORY":"SGP4","NORAD_CAT_ID":"49460","SEMIMAJOR_AXIS":"6917.884","INCLINATION":"53.2169","FILE":"3883717","CLASSIFICATION_TYPE":"U","RA_OF_ASC_NODE":"324.1682","APOAPSIS":"540.509","ELEMENT_SET_NO":"999","BSTAR":"0.00002992700000","MEAN_ANOMALY":"271.3625","TLE_LINE2":"2 49460  53.2169 324.1682 0001099  88.7493 271.3625 15.08838894 78943","REF_FRAME":"TEME","OBJECT_TYPE":"PAYLOAD","OBJECT_ID":"2021-104BE","DECAY_DATE":null,"MEAN_MOTION_DOT":"0.00000189","CENTER_NAME":"EARTH","COUNTRY_CODE":"US","REV_AT_EPOCH":"7894","ARG_OF_PERICENTER":"88.7493","MEAN_MOTION_DDOT":"0.0000000000000","PERIAPSIS":"538.988","MEAN_MOTION":"15.08838894","TIME_SYSTEM":"UTC","TLE_LINE1":"1 49460U 21104BE  23098.78129842  .00000189  00000-0  29927-4 0  9995"},{"TLE_LINE2":"2 49724  53.2155 254.5474 0001210  81.3141 278.7988 15.08844423 75710","MEAN_ANOMALY":"278.7988","BSTAR":"0.00010975000000","ELEMENT_SET_NO":"999","APOAPSIS":"540.569","RA_OF_ASC_NODE":"254.5474","CLASSIFICATION_TYPE":"U","FILE":"3883766","INCLINATION":"53.2155","SEMIMAJOR_AXIS":"6917.867","MEAN_ELEMENT_THEORY":"SGP4","NORAD_CAT_ID":"49724","LAUNCH_DATE":"2021-12-02","OBJECT_NAME":"STARLINK-3219","PERIOD":"95.437","EPHEMERIS_TYPE":"0","SITE":"AFETR","EPOCH":"2023-04-08T16:43:14.063520","RCS_SIZE":"LARGE","GP_ID":"229740230","ECCENTRICITY":"0.00012100","TLE_LINE1":"1 49724U 21115A   23098.69669055  .00001459  00000-0  10975-3 0  9998","TIME_SYSTEM":"UTC","MEAN_MOTION":"15.08844423","PERIAPSIS":"538.895","MEAN_MOTION_DDOT":"0.0000000000000","ARG_OF_PERICENTER":"81.3141","REV_AT_EPOCH":"7571","COUNTRY_CODE":"US","CENTER_NAME":"EARTH","MEAN_MOTION_DOT":"0.00001459","DECAY_DATE":null,"OBJECT_ID":"2021-115A","OBJECT_TYPE":"PAYLOAD","REF_FRAME":"TEME"},{"GP_ID":"229729689","ECCENTRICITY":"0.00014570","RCS_SIZE":"LARGE","EPOCH":"2023-04-08T11:23:55.586688","SITE":"AFETR","LAUNCH_DATE":"2021-12-02","OBJECT_NAME":"STARLINK-3218","EPHEMERIS_TYPE":"0","PERIOD":"95.438","NORAD_CAT_ID":"49725","MEAN_ELEMENT_THEORY":"SGP4","FILE":"3883527","CLASSIFICATION_TYPE":"U","INCLINATION":"53.2218","SEMIMAJOR_AXIS":"6917.897","APOAPSIS":"540.770","ELEMENT_SET_NO":"999","BSTAR":"-0.00006013500000","RA_OF_ASC_NODE":"255.6487","TLE_LINE2":"2 49725  53.2218 255.6487 0001457  91.3998 268.7161 15.08834696 74577","MEAN_ANOMALY":"268.7161","REF_FRAME":"TEME","OBJECT_TYPE":"PAYLOAD","OBJECT_ID":"2021-115B","MEAN_MOTION_DOT":"-0.00001245","DECAY_DATE":null,"ARG_OF_PERICENTER":"91.3998","CENTER_NAME":"EARTH","COUNTRY_CODE":"US","REV_AT_EPOCH":"7457","MEAN_MOTION_DDOT":"0.0000000000000","PERIAPSIS":"538.754","MEAN_MOTION":"15.08834696","TIME_SYSTEM":"UTC","TLE_LINE1":"1 49725U 21115B   23098.47494892 -.00001245  00000-0 -60135-4 0  9999"},{"BSTAR":"0.00000713180000","ELEMENT_SET_NO":"999","APOAPSIS":"540.491","RA_OF_ASC_NODE":"265.4625","TLE_LINE2":"2 49726  53.2107 265.4625 0001052  69.5833 290.5272 15.08834179 74431","MEAN_ANOMALY":"290.5272","NORAD_CAT_ID":"49726","MEAN_ELEMENT_THEORY":"SGP4","CLASSIFICATION_TYPE":"U","FILE":"3883527","SEMIMAJOR_AXIS":"6917.898","INCLINATION":"53.2107","SITE":"AFETR","LAUNCH_DATE":"2021-12-02","OBJECT_NAME":"STARLINK-3237","PERIOD":"95.438","EPHEMERIS_TYPE":"0","RCS_SIZE":"LARGE","GP_ID":"229729436","ECCENTRICITY":"0.00010520","EPOCH":"2023-04-08T11:49:04.642176","TIME_SYSTEM":"UTC","MEAN_MOTION":"15.08834179","TLE_LINE1":"1 49726U 21115C   23098.49241484 -.00000174  00000-0  71318-5 0  9994","MEAN_MOTION_DDOT":"0.0000000000000","PERIAPSIS":"539.035","MEAN_MOTION_DOT":"-0.00000174","DECAY_DATE":null,"ARG_OF_PERICENTER":"69.5833","REV_AT_EPOCH":"7443","COUNTRY_CODE":"US","CENTER_NAME":"EARTH","REF_FRAME":"TEME","OBJECT_ID":"2021-115C","OBJECT_TYPE":"PAYLOAD"},{"SEMIMAJOR_AXIS":"6917.909","INCLINATION":"53.2147","FILE":"3883527","CLASSIFICATION_TYPE":"U","MEAN_ELEMENT_THEORY":"SGP4","NORAD_CAT_ID":"49727","MEAN_ANOMALY":"266.9200","TLE_LINE2":"2 49727  53.2147 265.4486 0001168  93.1925 266.9200 15.08830746 74438","RA_OF_ASC_NODE":"265.4486","APOAPSIS":"540.582","BSTAR":"0.00000998220000","ELEMENT_SET_NO":"999","EPOCH":"2023-04-08T11:54:23.249088","GP_ID":"229728688","ECCENTRICITY":"0.00011680","RCS_SIZE":"LARGE","EPHEMERIS_TYPE":"0","PERIOD":"95.438","LAUNCH_DATE":"2021-12-02","OBJECT_NAME":"STARLINK-3242","SITE":"AFETR","PERIAPSIS":"538.966","MEAN_MOTION_DDOT":"0.0000000000000","TLE_LINE1":"1 49727U 21115D   23098.49610242 -.00000129  00000-0  99822-5 0  9997","MEAN_MOTION":"15.08830746","TIME_SYSTEM":"UTC","OBJECT_ID":"2021-115D","OBJECT_TYPE":"PAYLOAD","REF_FRAME":"TEME","CENTER_NAME":"EARTH","REV_AT_EPOCH":"7443","COUNTRY_CODE":"US","ARG_OF_PERICENTER":"93.1925","DECAY_DATE":null,"MEAN_MOTION_DOT":"-0.00000129"}];
